$GPRMC,120000.000,A,3500.000,N,13500.000,E,2.0,45.0,010126,,*36
$GPGGA,120000.000,3500.000,N,13500.000,E,1,10,0.8,50.0,M,0.0,M,,*52
$GPRMC,120001.000,A,3500.001,N,13500.001,E,2.0,45.0,010126,,*37
$GPGGA,120001.000,3500.001,N,13500.001,E,1,10,0.8,50.2,M,0.0,M,,*51
$GPRMC,120002.000,A,3500.002,N,13500.002,E,2.0,45.0,010126,,*34
$GPGGA,120002.000,3500.002,N,13500.002,E,1,10,0.8,50.4,M,0.0,M,,*54
$GPRMC,120003.000,A,3500.003,N,13500.003,E,2.0,45.0,010126,,*35
$GPGGA,120003.000,3500.003,N,13500.003,E,1,10,0.8,50.6,M,0.0,M,,*57
$GPRMC,120004.000,A,3500.004,N,13500.004,E,2.0,45.0,010126,,*32
$GPGGA,120004.000,3500.004,N,13500.004,E,1,10,0.8,50.8,M,0.0,M,,*5E
$GPRMC,120005.000,A,3500.005,N,13500.005,E,2.0,45.0,010126,,*33
$GPGGA,120005.000,3500.005,N,13500.005,E,1,10,0.8,51.0,M,0.0,M,,*56
$GPRMC,120006.000,A,3500.006,N,13500.006,E,2.0,45.0,010126,,*30
$GPGGA,120006.000,3500.006,N,13500.006,E,1,10,0.8,51.2,M,0.0,M,,*57
$GPRMC,120007.000,A,3500.007,N,13500.007,E,2.0,45.0,010126,,*31
$GPGGA,120007.000,3500.007,N,13500.007,E,1,10,0.8,51.4,M,0.0,M,,*50
$GPRMC,120008.000,A,3500.008,N,13500.008,E,2.0,45.0,010126,,*3E
$GPGGA,120008.000,3500.008,N,13500.008,E,1,10,0.8,51.6,M,0.0,M,,*5D
$GPRMC,120009.000,A,3500.009,N,13500.009,E,2.0,45.0,010126,,*3F
$GPGGA,120009.000,3500.009,N,13500.009,E,1,10,0.8,51.8,M,0.0,M,,*52
